STARLINK-35633          
1 66162U 25240S   25322.50002315 -.00077492  00000+0 -13979-2 0  9995
2 66162  53.1603 220.3370 0000758  89.1105 128.0093 15.49333635  5002
STARLINK-35607          
1 66163U 25240T   25322.50002315 -.00074939  00000+0 -13512-2 0  9992
2 66163  53.1603 220.3332 0000778  89.1241 129.9149 15.49331348  5005
STARLINK-35614          
1 66164U 25240U   25322.50002315 -.00061860  00000+0 -11123-2 0  9998
2 66164  53.1604 220.3242 0001277  87.5085 135.3636 15.49325563  5004
STARLINK-35575          
1 66165U 25240V   25322.50002315 -.00063068  00000+0 -11343-2 0  9995
2 66165  53.1603 220.3288 0001215  87.2531 133.7013 15.49326673  5003
STARLINK-35624          
1 66166U 25240W   25322.50002315 -.00067777  00000+0 -12204-2 0  9994
2 66166  53.1602 220.3170 0000604  96.2646 130.4400 15.49327799  5005
STARLINK-35641          
1 66167U 25240X   25322.50002315 -.00057292  00000+0 -10291-2 0  9990
2 66167  53.1603 220.3210 0000664  90.5151 134.2720 15.49322958  5005
STARLINK-35578          
1 66168U 25240Y   25322.50002315 -.00066119  00000+0 -11901-2 0  9998
2 66168  53.1603 220.3048 0000702  94.4400 138.0146 15.49328224  5004
STARLINK-35638          
1 66169U 25240Z   25322.50002315 -.00052969  00000+0 -95040-3 0  9994
2 66169  53.1604 220.3123 0001193  89.7236 138.9002 15.49319673  5007
STARLINK-35585          
1 66170U 25240AA  25322.50002315 -.00055779  00000+0 -10016-2 0  9997
2 66170  53.1603 220.3010 0001207  84.0181 150.3559 15.49321495  5006
STARLINK-35606          
1 66171U 25240AB  25322.50002315 -.00047725  00000+0 -85503-3 0  9994
2 66171  53.1604 220.2967 0000752  94.3546 141.9334 15.49318192  5008
STARLINK-35627          
1 66172U 25240AC  25322.50002315 -.00047819  00000+0 -85677-3 0  9991
2 66172  53.1603 220.3087 0000598  99.1937 131.3483 15.49316777  5002
STARLINK-35634          
1 66173U 25240AD  25322.50002315 -.00060116  00000+0 -10806-2 0  9998
2 66173  53.1604 220.2929 0000750  95.1827 143.0207 15.49325357  5000
