CCSDS_OMM_VERS = 2.0
CREATION_DATE  = 
ORIGINATOR     = 

OBJECT_NAME    = STARLINK-35633
OBJECT_ID      = 2025-240S
CENTER_NAME    = EARTH
REF_FRAME      = TEME
TIME_SYSTEM    = UTC
MEAN_ELEMENT_THEORY = SGP/SGP4

EPOCH          = 2025-11-18T12:00:02.000160
MEAN_MOTION    = 15.49333635
ECCENTRICITY   = .0000758
INCLINATION    = 53.1603
RA_OF_ASC_NODE = 220.3370
ARG_OF_PERICENTER = 89.1105
MEAN_ANOMALY   = 128.0093

EPHEMERIS_TYPE = 0
CLASSIFICATION_TYPE = U
NORAD_CAT_ID   = 66162
ELEMENT_SET_NO = 999
REV_AT_EPOCH   = 500
BSTAR          = -.13979E-2
MEAN_MOTION_DOT = -.77492E-3
MEAN_MOTION_DDOT = 0

CCSDS_OMM_VERS = 2.0
CREATION_DATE  = 
ORIGINATOR     = 

OBJECT_NAME    = STARLINK-35607
OBJECT_ID      = 2025-240T
CENTER_NAME    = EARTH
REF_FRAME      = TEME
TIME_SYSTEM    = UTC
MEAN_ELEMENT_THEORY = SGP/SGP4

EPOCH          = 2025-11-18T12:00:02.000160
MEAN_MOTION    = 15.49331348
ECCENTRICITY   = .0000778
INCLINATION    = 53.1603
RA_OF_ASC_NODE = 220.3332
ARG_OF_PERICENTER = 89.1241
MEAN_ANOMALY   = 129.9149

EPHEMERIS_TYPE = 0
CLASSIFICATION_TYPE = U
NORAD_CAT_ID   = 66163
ELEMENT_SET_NO = 999
REV_AT_EPOCH   = 500
BSTAR          = -.13512E-2
MEAN_MOTION_DOT = -.74939E-3
MEAN_MOTION_DDOT = 0

CCSDS_OMM_VERS = 2.0
CREATION_DATE  = 
ORIGINATOR     = 

OBJECT_NAME    = STARLINK-35614
OBJECT_ID      = 2025-240U
CENTER_NAME    = EARTH
REF_FRAME      = TEME
TIME_SYSTEM    = UTC
MEAN_ELEMENT_THEORY = SGP/SGP4

EPOCH          = 2025-11-18T12:00:02.000160
MEAN_MOTION    = 15.49325563
ECCENTRICITY   = .0001277
INCLINATION    = 53.1604
RA_OF_ASC_NODE = 220.3242
ARG_OF_PERICENTER = 87.5085
MEAN_ANOMALY   = 135.3636

EPHEMERIS_TYPE = 0
CLASSIFICATION_TYPE = U
NORAD_CAT_ID   = 66164
ELEMENT_SET_NO = 999
REV_AT_EPOCH   = 500
BSTAR          = -.11123E-2
MEAN_MOTION_DOT = -.6186E-3
MEAN_MOTION_DDOT = 0

CCSDS_OMM_VERS = 2.0
CREATION_DATE  = 
ORIGINATOR     = 

OBJECT_NAME    = STARLINK-35575
OBJECT_ID      = 2025-240V
CENTER_NAME    = EARTH
REF_FRAME      = TEME
TIME_SYSTEM    = UTC
MEAN_ELEMENT_THEORY = SGP/SGP4

EPOCH          = 2025-11-18T12:00:02.000160
MEAN_MOTION    = 15.49326673
ECCENTRICITY   = .0001215
INCLINATION    = 53.1603
RA_OF_ASC_NODE = 220.3288
ARG_OF_PERICENTER = 87.2531
MEAN_ANOMALY   = 133.7013

EPHEMERIS_TYPE = 0
CLASSIFICATION_TYPE = U
NORAD_CAT_ID   = 66165
ELEMENT_SET_NO = 999
REV_AT_EPOCH   = 500
BSTAR          = -.11343E-2
MEAN_MOTION_DOT = -.63068E-3
MEAN_MOTION_DDOT = 0

CCSDS_OMM_VERS = 2.0
CREATION_DATE  = 
ORIGINATOR     = 

OBJECT_NAME    = STARLINK-35624
OBJECT_ID      = 2025-240W
CENTER_NAME    = EARTH
REF_FRAME      = TEME
TIME_SYSTEM    = UTC
MEAN_ELEMENT_THEORY = SGP/SGP4

EPOCH          = 2025-11-18T12:00:02.000160
MEAN_MOTION    = 15.49327799
ECCENTRICITY   = .0000604
INCLINATION    = 53.1602
RA_OF_ASC_NODE = 220.3170
ARG_OF_PERICENTER = 96.2646
MEAN_ANOMALY   = 130.4400

EPHEMERIS_TYPE = 0
CLASSIFICATION_TYPE = U
NORAD_CAT_ID   = 66166
ELEMENT_SET_NO = 999
REV_AT_EPOCH   = 500
BSTAR          = -.12204E-2
MEAN_MOTION_DOT = -.67777E-3
MEAN_MOTION_DDOT = 0

CCSDS_OMM_VERS = 2.0
CREATION_DATE  = 
ORIGINATOR     = 

OBJECT_NAME    = STARLINK-35641
OBJECT_ID      = 2025-240X
CENTER_NAME    = EARTH
REF_FRAME      = TEME
TIME_SYSTEM    = UTC
MEAN_ELEMENT_THEORY = SGP/SGP4

EPOCH          = 2025-11-18T12:00:02.000160
MEAN_MOTION    = 15.49322958
ECCENTRICITY   = .0000664
INCLINATION    = 53.1603
RA_OF_ASC_NODE = 220.3210
ARG_OF_PERICENTER = 90.5151
MEAN_ANOMALY   = 134.2720

EPHEMERIS_TYPE = 0
CLASSIFICATION_TYPE = U
NORAD_CAT_ID   = 66167
ELEMENT_SET_NO = 999
REV_AT_EPOCH   = 500
BSTAR          = -.10291E-2
MEAN_MOTION_DOT = -.57292E-3
MEAN_MOTION_DDOT = 0

CCSDS_OMM_VERS = 2.0
CREATION_DATE  = 
ORIGINATOR     = 

OBJECT_NAME    = STARLINK-35578
OBJECT_ID      = 2025-240Y
CENTER_NAME    = EARTH
REF_FRAME      = TEME
TIME_SYSTEM    = UTC
MEAN_ELEMENT_THEORY = SGP/SGP4

EPOCH          = 2025-11-18T12:00:02.000160
MEAN_MOTION    = 15.49328224
ECCENTRICITY   = .0000702
INCLINATION    = 53.1603
RA_OF_ASC_NODE = 220.3048
ARG_OF_PERICENTER = 94.4400
MEAN_ANOMALY   = 138.0146

EPHEMERIS_TYPE = 0
CLASSIFICATION_TYPE = U
NORAD_CAT_ID   = 66168
ELEMENT_SET_NO = 999
REV_AT_EPOCH   = 500
BSTAR          = -.11901E-2
MEAN_MOTION_DOT = -.66119E-3
MEAN_MOTION_DDOT = 0

CCSDS_OMM_VERS = 2.0
CREATION_DATE  = 
ORIGINATOR     = 

OBJECT_NAME    = STARLINK-35638
OBJECT_ID      = 2025-240Z
CENTER_NAME    = EARTH
REF_FRAME      = TEME
TIME_SYSTEM    = UTC
MEAN_ELEMENT_THEORY = SGP/SGP4

EPOCH          = 2025-11-18T12:00:02.000160
MEAN_MOTION    = 15.49319673
ECCENTRICITY   = .0001193
INCLINATION    = 53.1604
RA_OF_ASC_NODE = 220.3123
ARG_OF_PERICENTER = 89.7236
MEAN_ANOMALY   = 138.9002

EPHEMERIS_TYPE = 0
CLASSIFICATION_TYPE = U
NORAD_CAT_ID   = 66169
ELEMENT_SET_NO = 999
REV_AT_EPOCH   = 500
BSTAR          = -.9504E-3
MEAN_MOTION_DOT = -.52969E-3
MEAN_MOTION_DDOT = 0

CCSDS_OMM_VERS = 2.0
CREATION_DATE  = 
ORIGINATOR     = 

OBJECT_NAME    = STARLINK-35585
OBJECT_ID      = 2025-240AA
CENTER_NAME    = EARTH
REF_FRAME      = TEME
TIME_SYSTEM    = UTC
MEAN_ELEMENT_THEORY = SGP/SGP4

EPOCH          = 2025-11-18T12:00:02.000160
MEAN_MOTION    = 15.49321495
ECCENTRICITY   = .0001207
INCLINATION    = 53.1603
RA_OF_ASC_NODE = 220.3010
ARG_OF_PERICENTER = 84.0181
MEAN_ANOMALY   = 150.3559

EPHEMERIS_TYPE = 0
CLASSIFICATION_TYPE = U
NORAD_CAT_ID   = 66170
ELEMENT_SET_NO = 999
REV_AT_EPOCH   = 500
BSTAR          = -.10016E-2
MEAN_MOTION_DOT = -.55779E-3
MEAN_MOTION_DDOT = 0

CCSDS_OMM_VERS = 2.0
CREATION_DATE  = 
ORIGINATOR     = 

OBJECT_NAME    = STARLINK-35606
OBJECT_ID      = 2025-240AB
CENTER_NAME    = EARTH
REF_FRAME      = TEME
TIME_SYSTEM    = UTC
MEAN_ELEMENT_THEORY = SGP/SGP4

EPOCH          = 2025-11-18T12:00:02.000160
MEAN_MOTION    = 15.49318192
ECCENTRICITY   = .0000752
INCLINATION    = 53.1604
RA_OF_ASC_NODE = 220.2967
ARG_OF_PERICENTER = 94.3546
MEAN_ANOMALY   = 141.9334

EPHEMERIS_TYPE = 0
CLASSIFICATION_TYPE = U
NORAD_CAT_ID   = 66171
ELEMENT_SET_NO = 999
REV_AT_EPOCH   = 500
BSTAR          = -.85503E-3
MEAN_MOTION_DOT = -.47725E-3
MEAN_MOTION_DDOT = 0

CCSDS_OMM_VERS = 2.0
CREATION_DATE  = 
ORIGINATOR     = 

OBJECT_NAME    = STARLINK-35627
OBJECT_ID      = 2025-240AC
CENTER_NAME    = EARTH
REF_FRAME      = TEME
TIME_SYSTEM    = UTC
MEAN_ELEMENT_THEORY = SGP/SGP4

EPOCH          = 2025-11-18T12:00:02.000160
MEAN_MOTION    = 15.49316777
ECCENTRICITY   = .0000598
INCLINATION    = 53.1603
RA_OF_ASC_NODE = 220.3087
ARG_OF_PERICENTER = 99.1937
MEAN_ANOMALY   = 131.3483

EPHEMERIS_TYPE = 0
CLASSIFICATION_TYPE = U
NORAD_CAT_ID   = 66172
ELEMENT_SET_NO = 999
REV_AT_EPOCH   = 500
BSTAR          = -.85677E-3
MEAN_MOTION_DOT = -.47819E-3
MEAN_MOTION_DDOT = 0

CCSDS_OMM_VERS = 2.0
CREATION_DATE  = 
ORIGINATOR     = 

OBJECT_NAME    = STARLINK-35634
OBJECT_ID      = 2025-240AD
CENTER_NAME    = EARTH
REF_FRAME      = TEME
TIME_SYSTEM    = UTC
MEAN_ELEMENT_THEORY = SGP/SGP4

EPOCH          = 2025-11-18T12:00:02.000160
MEAN_MOTION    = 15.49325357
ECCENTRICITY   = .000075
INCLINATION    = 53.1604
RA_OF_ASC_NODE = 220.2929
ARG_OF_PERICENTER = 95.1827
MEAN_ANOMALY   = 143.0207

EPHEMERIS_TYPE = 0
CLASSIFICATION_TYPE = U
NORAD_CAT_ID   = 66173
ELEMENT_SET_NO = 999
REV_AT_EPOCH   = 500
BSTAR          = -.10806E-2
MEAN_MOTION_DOT = -.60116E-3
MEAN_MOTION_DDOT = 0

